#dP2024  1  9  0  0  0.00000000     289 ORBIT ITRF  BHN ESOC                    
## 2296 172800.00000000   300.00000000 60318 0.0000000000000                    
+  118   G13G22G21G07G05G20G31G17G15G16G29G12G19G02G25G01G30                    
+        G24G06G09G03G32G26G08G10G04G18G23G14G11G28R09R11R22                    
+        R25R20R19R13R01R08R03R07R02R17R14R18R21R05R15R12R04                    
+        R24R16E11E12E19E18E14E26E24E30E08E09E02E07E03E04E05                    
+        E21E25E27E31E36E13E15E33E34E10C11C12C14C19C20C27C28                    
+        C22C21C29C30C23C24C26C25C32C33C35C34C36C37C46C45C44                    
+        C43C41C42C06C07C08C09C10C13C16C38C39C40J02J03J04  0                    
++         5  5  5  5  5  4  4  5  5  5  5  5  5  5  5  5  4                    
++         4  4  4  5  7  5  5  4  5  5  4  4  5  4  5  5  5                    
++         5  7  5  6  7  5  5  6  5  5  5  5  4  6  5  5  5                    
++         5  5  5  4  5  5  5  5  5  5  4  4  5  5  5  5  5                    
++         5  5  5  4  4  5  5  4  4  4  5  5  5  6  6  5  5                    
++         6  6  5  5  4  4  4  4  6  6  5  5  5  5  5  5  5                    
++         5  6  6  6  6  7  6  6  7  6  8  7  7  6  5  6  0                    
%c M  cc GPS ccc cccc cccc cccc cccc ccccc ccccc ccccc ccccc                    
%c cc cc ccc ccc cccc cccc cccc cccc ccccc ccccc ccccc ccccc                    
%f  0.0000000  0.000000000  0.00000000000  0.000000000000000                    
%f  0.0000000  0.000000000  0.00000000000  0.000000000000000                    
%i    0    0    0    0      0      0      0      0         0                    
%i    0    0    0    0      0      0      0      0         0                    
/* CCCCCCCCCCCCCCCCCCCCCCCCCCCCCCCCCCCCCCCCCCCCCCCCCCCCCCCCCCCCCCCCCCCCCCCCCCCCC
/* CCCCCCCCCCCCCCCCCCCCCCCCCCCCCCCCCCCCCCCCCCCCCCCCCCCCCCCCCCCCCCCCCCCCCCCCCCCCC
/* CCCCCCCCCCCCCCCCCCCCCCCCCCCCCCCCCCCCCCCCCCCCCCCCCCCCCCCCCCCCCCCCCCCCCCCCCCCCC
/* PCV:IGS        OL/AL:EOT11A   NONE     YN ORB:CoN CLK:CoN                    
*  2024  1  9  3  0  0.00000000                                                 
PG13   -424.709464 -15591.964451 -21672.588515    614.013323                    
PG22  10511.192942 -21771.033122 -10891.754238     51.475072                    
PG21  19057.384764  16734.698805  -8874.116724    139.003743                    
PG07  22545.661609   2698.453162 -13672.723351    -32.695434                    
PG05  -6922.057262 -23700.677763  -9843.806160   -157.257234                    
PG20   -551.698509 -26331.953993   4153.846746    392.472738                    
PG31   -961.979481  16678.337159  20345.451530   -227.175905                    
PG17  22716.156898 -13386.040361   4226.170353    720.313642                    
PG15 -12542.368036 -10462.335813 -21455.344755    115.334007                    
PG16    -27.221264  25945.815274  -4697.924896   -387.918733                    
PG29 -24272.914746   2707.564510  10513.348613   -608.932951                    
PG12 -10850.977095 -15929.159480  18023.868266   -465.981747                    
PG19  17294.884678 -15750.118857  12046.850318    423.964760                    
PG02  21400.856559  14986.417230  -4934.725830   -503.625341                    
PG25 -15088.312656  -3456.437189  21269.606794    484.595659                    
PG01  22837.631993  13783.167285   1667.889220    165.621097                    
PG30  16068.026193  -7140.746510 -19854.348258   -447.699853                    
PG24 -20325.929601 -16136.628688  -7004.267285   -410.228301                    
PG06   6878.477274 -12940.403409  22217.497030    451.119430                    
PG09  24110.263155  -5712.596631   9564.767117     52.878706                    
PG03  11589.824224  15230.645155  18326.571905    113.308435                    
PG32 -19872.474105  16130.106492   6861.810900   -603.604844                    
PG26  -3817.115350  25269.747367   6344.629979    202.043447                    
PG08  11421.986630  10958.347810 -21460.951899   -161.166141                    
PG10 -10778.199682  18728.030603 -15016.824145    -68.585211                    
PG04  18509.470339   5234.336751  18383.009006    261.259562                    
PG18 -21526.749815  -1481.990575 -15593.150690   -527.495041                    
PG23 -14476.794665   6141.325633 -21353.900199    131.723857                    
PG14  13360.458477 -15179.845304 -17103.781759    293.612359                    
PG11  -4431.437551 -18664.135814  18415.377767   -532.902264                    
PG28  -9628.867749  11910.623516  21673.502793    -93.231799                    
PR09   8190.462123  24051.952840   2703.994144    163.317687                    
PR11  11869.315170   1067.618510 -22549.440738   -226.346714                    
PR22  23767.404777    807.566539   9278.180421    102.219168                    
PR25  22430.597155   8991.935715  -8129.461075     24.589158                    
PR20   7344.609641  11498.248818 -21547.686795   -106.542074                    
PR19 -14795.671673   5798.408840 -19946.479829   -261.375382                    
PR13  -6679.547600 -24101.135164  -5058.730568    -43.140696                    
PR01  14090.166673 -20874.999239  -4024.746594     74.077817                    
PR08  18138.519387 -11455.049431  13890.526249    -73.987550                    
PR03 -10886.008871  -3626.418327 -22728.438790     92.370256                    
PR07  11531.962187   2787.058506  22628.648141     73.136128                    
PR02   2782.621383 -16849.123764 -18932.897258    -22.417400                    
PR17 -22790.215422  -7981.006248   8291.982577     50.668830                    
PR14 -13535.794285 -16532.042607  13926.018953     25.876597                    
PR18 -24070.669962   -826.949547  -8300.311155    121.119818                    
PR21  22911.180082   7958.268842  -7856.527930    -67.496086                    
PR05 -15703.970464  19949.766988   2308.383094    125.039740                    
PR15 -11523.941031    455.065815  22763.336384     83.222600                    
PR12   2719.801491 -17686.539200 -18169.340018     35.360534                    
PR04 -18095.348628  11226.050530 -13998.463681    218.627275                    
PR24  -8282.280248 -11646.551206  21154.767684    -39.196822                    
PR16  -2693.520207  17444.645257  18430.167327     22.266943                    
PE11   2994.131962 -16719.562567  24236.891943   3280.762338                    
PE12  20929.777189  -2520.972437  20791.205881   -854.601046                    
PE19  21926.527924   3923.397782  19501.652714   -849.833899                    
PE18 -13003.520688 -11836.335601  19020.975779    189.541408                    
PE14  -1635.037352  21658.330750 -22553.799522      5.217669                    
PE26  16248.612825  20808.461388 -13374.083590    333.859968                    
PE24   6988.616224 -27679.973983  -7896.945401   -531.728980                    
PE30 -15767.689955  12373.568890  21760.358755   -809.318120                    
PE08 -26769.913414  12519.861742  -1727.650221   -205.077461                    
PE09  14705.471685 -20075.566959 -16023.117112   -292.791210                    
PE02 -15317.049184 -10523.259995  23035.881076     93.506259                    
PE07 -14564.939595  20163.657821  16050.266395    -97.408647                    
PE03 -23411.056415  -2070.415370 -18004.027765    -85.745685                    
PE04  26623.529800 -12896.453683   1098.262790   -299.282679                    
PE05  -6615.235684 -15657.364605 -24232.964900   4708.528746                    
PE21   6473.722934  26556.368633 -11353.602719   -572.949725                    
PE25  -6222.748615 -26770.426363  11006.012929     -0.777708                    
PE27  -6594.445399  27859.600858   7481.641704   -244.708234                    
PE31  15618.669429 -12743.011953 -21679.039228    -13.370959                    
PE36 -15735.403517 -20793.352185  14007.813340   -169.225995                    
PE13  -3654.101081  16301.992329 -24424.956290    -19.849888                    
PE15 -21219.296435   2049.509921 -20519.600523    -79.159394                    
PE33  25996.308712  13543.803539   4112.793378      5.641237                    
PE34 -26114.693514 -13141.949853  -4655.912272    -87.946386                    
PE10  13497.296330  -9972.042663  24383.923416   -592.702983                    
PC11  20683.653815  -9997.093817  15911.787536    348.644179                    
PC12  27840.164418   1320.394378  -1368.064140    801.699979                    
PC14  17308.744818 -20616.876999   7267.572806    -73.124052                    
PC19 -12498.593677  24879.320446   2049.412393   -940.384742                    
PC20 -19186.407978  14657.511685 -14003.034734    -47.916520                    
PC27 -25299.718109  -6738.826419   9624.070962    254.051345                    
PC28 -11495.963024 -14576.882148  20842.887083    192.627922                    
PC22   1713.701882  21400.489320  17836.671100   -154.845874                    
PC21  14793.310878   5499.754833  23027.934237   -964.722754                    
PC29 -11576.473459  14898.803291 -20561.069640    225.637364                    
PC30 -26448.456138   5761.584738  -6738.693502    -13.937059                    
PC23 -10097.996590 -25374.986165  -5767.114701   -792.573260                    
PC24  17140.595994  -2154.297106 -21933.785772    771.912312                    
PC26  19846.194437  15423.156098 -12107.399016   -232.077972                    
PC25   3945.886536 -19881.169759 -19205.907767    297.427882                    
PC32 -14794.124788  -5463.921997 -23007.626703   -551.541409                    
PC33  12415.292050 -24912.531981  -1905.694908   -942.639413                    
PC35  12055.041369  14210.657116 -20792.781079    461.589118                    
PC34  25865.043385  -6680.591051   8103.906218    343.050661                    
PC36  -4977.307521  19290.998851  19547.358566    -59.994241                    
PC37 -19398.934765 -16382.889163  11611.832584   -931.598466                    
PC46 -16609.349764   3050.255367  22208.782678   -114.168876                    
PC45  10338.164658  25330.392501   5412.559727    -61.684282                    
PC44  25475.989642   5953.267659  -9768.903158    348.094747                    
PC43  12592.942848 -14736.585227  20076.503268     55.631289                    
PC41  -1157.881778 -21854.710285 -17256.962092   -878.351912                    
PC42  19307.866410 -13185.277117  15261.600606   -468.361056                    
PC06  -7890.732742  23384.912157  34213.622850     37.165412                    
PC07 -15345.293627  36901.800431 -13625.305373   -607.607237                    
PC08   -679.081059  37874.865718 -18251.695154    125.440098                    
PC09   3959.283197  26618.759637  33013.183295   -327.866365                    
PC10 -10135.300096  36829.600017 -18075.243190    133.255511                    
PC13   3972.462304  40014.840230 -12054.048126    405.394723                    
PC16  -7948.465224  22917.418320  34735.223186   -271.164179                    
PC38  -6365.829966  33784.056303 -24245.789028    129.269865                    
PC39 -15582.351971  20275.270413  33524.790155     -6.564874                    
PC40 -23534.449758  32892.489379 -12365.143224    -51.310589                    
PJ02 -30096.257746  25262.466554  20432.369840     -1.045543                    
PJ03 -27102.006568  17506.840764 -22511.574428     -0.137029                    
PJ04 -22693.696238  35077.163060  -1569.238320     76.328534                    
EOF                                                                             
